Unnamed: 0,NORAD_CAT_ID,OBJECT_NAME,EPOCH,MEAN_MOTION,ECCENTRICITY,INCLINATION,RA_OF_ASC_NODE,ARG_OF_PERICENTER,MEAN_ANOMALY,BSTAR,MEAN_MOTION_DOT,MEAN_MOTION_DDOT,TLE_LINE1,TLE_LINE2,SEMIMAJOR_AXIS,PERIOD,APOGEE,PERIGEE,alltitude
2859404,48481,STARLINK-2706,2022-05-26 17:20:33.180000,15.06131715,0.0001691,53.0546,290.2803,49.2564,310.8571,0.0038598,0.00057262,0,1 48481U 21040BF  22146.72260625  .00057262  00000-0  38598-2 0  9994,2 48481  53.0546 290.2803 0001691  49.2564 310.8571 15.06131715 57895,6926.171,95.609,549.207,546.865,548.1483145478388
2859403,48481,STARLINK-2706,2022-05-26 17:20:33.180000,15.06131715,0.0001691,53.0546,290.2803,49.2564,310.8571,0.0038598,0.00057262,0,1 48481U 21040BF  22146.72260625  .00057262  00000-0  38598-2 0  9994,2 48481  53.0546 290.2803 0001691  49.2564 310.8571 15.06131715 59178,6926.171,95.609,549.207,546.865,548.1483145478388
2856597,48481,STARLINK-2706,2022-05-26 09:22:50.289312,15.05893122,4.52e-05,53.0554,291.768,29.7893,330.3122,0.0072927,0.00108532,0,1 48481U 21040BF  22146.39085983  .00108532  00000-0  72927-2 0  9990,2 48481  53.0554 291.7680 0000452  29.7893 330.3122 15.05893122 57845,6926.903,95.624,549.081,548.454,549.3745171960242
2856596,48481,STARLINK-2706,2022-05-26 09:22:50.289312,15.05893122,4.52e-05,53.0554,291.768,29.7893,330.3122,0.0072927,0.00108532,0,1 48481U 21040BF  22146.39085983  .00108532  00000-0  72927-2 0  9990,2 48481  53.0554 291.7680 0000452  29.7893 330.3122 15.05893122 59128,6926.903,95.624,549.081,548.454,549.3745171960242
2854195,48481,STARLINK-2706,2022-05-25 22:13:55.122240,15.05667182,0.0001696,53.0552,293.8523,40.9558,319.1558,0.010029,0.00149318,0,1 48481U 21040BF  22145.92633116  .00149318  00000-0  10029-1 0  9996,2 48481  53.0552 293.8523 0001696  40.9558 319.1558 15.05667182 59054,6927.595,95.639,550.635,548.286,549.4487807208022
2852242,48481,STARLINK-2706,2022-05-25 17:27:11.231712,15.05618268,0.0001888,53.0554,294.7469,41.9573,318.156,0.010243,0.00152376,0,1 48481U 21040BF  22145.72721333  .00152376  00000-0  10243-1 0  9999,2 48481  53.0554 294.7469 0001888  41.9573 318.1560 15.05618268 57743,6927.745,95.642,550.918,548.303,549.5149355889997
2852241,48481,STARLINK-2706,2022-05-25 17:27:11.231712,15.05618268,0.0001888,53.0554,294.7469,41.9573,318.156,0.010243,0.00152376,0,1 48481U 21040BF  22145.72721333  .00152376  00000-0  10243-1 0  9999,2 48481  53.0554 294.7469 0001888  41.9573 318.1560 15.05618268 59026,6927.745,95.642,550.918,548.303,549.5149355889997
2848031,48481,STARLINK-2706,2022-05-24 23:55:53.580288,15.05126259,0.0001541,53.0554,298.0205,51.3048,308.8078,0.0097214,0.00142503,0,1 48481U 21040BF  22144.99714792  .00142503  00000-0  97214-2 0  9993,2 48481  53.0554 298.0205 0001541  51.3048 308.8078 15.05126259 57638,6929.255,95.673,552.188,550.052,551.3321578032795
2848030,48481,STARLINK-2706,2022-05-24 23:55:53.580288,15.05126259,0.0001541,53.0554,298.0205,51.3048,308.8078,0.0097214,0.00142503,0,1 48481U 21040BF  22144.99714792  .00142503  00000-0  97214-2 0  9993,2 48481  53.0554 298.0205 0001541  51.3048 308.8078 15.05126259 58910,6929.255,95.673,552.188,550.052,551.3321578032795
2845603,48481,STARLINK-2706,2022-05-24 17:33:36.906624,15.04888474,0.000184,53.0558,299.2127,66.8255,293.2927,0.0078991,0.00114544,0,1 48481U 21040BF  22144.73167716  .00114544  00000-0  78991-2 0  9998,2 48481  53.0558 299.2127 0001840  66.8255 293.2927 15.04888474 57599,6929.985,95.688,553.125,550.575,552.2298618832386
2845602,48481,STARLINK-2706,2022-05-24 17:33:36.906624,15.04888474,0.000184,53.0558,299.2127,66.8255,293.2927,0.0078991,0.00114544,0,1 48481U 21040BF  22144.73167716  .00114544  00000-0  78991-2 0  9998,2 48481  53.0558 299.2127 0001840  66.8255 293.2927 15.04888474 58871,6929.985,95.688,553.125,550.575,552.2298618832386
2841026,48481,STARLINK-2706,2022-05-24 03:13:14.963520,15.04399278,8.49e-05,53.0561,301.8927,293.9071,66.1829,0.0041157,0.00058301,0,1 48481U 21040BF  22144.13419093  .00058301  00000-0  41157-2 0  9992,2 48481  53.0561 301.8927 0000849 293.9071  66.1829 15.04399278 57506,6931.487,95.719,553.941,552.764,553.9918094055699
2841025,48481,STARLINK-2706,2022-05-24 03:13:14.963520,15.04399278,8.49e-05,53.0561,301.8927,293.9071,66.1829,0.0041157,0.00058301,0,1 48481U 21040BF  22144.13419093  .00058301  00000-0  41157-2 0  9992,2 48481  53.0561 301.8927 0000849 293.9071  66.1829 15.04399278 58787,6931.487,95.719,553.941,552.764,553.9918094055699
2838411,48481,STARLINK-2706,2022-05-23 17:39:32.861664,15.04090897,0.0001847,53.0558,303.6777,43.3518,316.7615,0.0014671,0.00020323,0,1 48481U 21040BF  22143.73579701  .00020323  00000-0  14671-2 0  9994,2 48481  53.0558 303.6777 0001847  43.3518 316.7615 15.04090897 58724,6932.435,95.739,555.58,553.019,554.2498946576397
2838412,48481,STARLINK-2706,2022-05-23 17:39:32.861664,15.04090897,0.0001847,53.0558,303.6777,43.3518,316.7615,0.0014671,0.00020323,0,1 48481U 21040BF  22143.73579701  .00020323  00000-0  14671-2 0  9994,2 48481  53.0558 303.6777 0001847  43.3518 316.7615 15.04090897 57442,6932.435,95.739,555.58,553.019,554.2498946576397
2831172,48481,STARLINK-2706,2022-05-22 17:44:16.855008,15.03958202,0.0001777,53.0563,308.1348,54.6614,305.454,7.9153e-05,8.29e-06,0,1 48481U 21040BF  22142.73908397  .00000829  00000-0  79153-4 0  9997,2 48481  53.0563 308.1348 0001777  54.6614 305.4540 15.03958202 57293,6932.842,95.747,555.939,553.475,554.8759505290354
2828593,48481,STARLINK-2706,2022-05-22 11:21:29.982816,15.03961301,0.0001825,53.0565,309.3244,57.6618,302.4546,8.6376e-05,9.3e-06,0,1 48481U 21040BF  22142.47326369  .00000930  00000-0  86376-4 0  9999,2 48481  53.0565 309.3244 0001825  57.6618 302.4546 15.03961301 57257,6932.833,95.747,555.963,553.433,554.9031553311664
2828592,48481,STARLINK-2706,2022-05-22 11:21:29.982816,15.03961301,0.0001825,53.0565,309.3244,57.6618,302.4546,8.6376e-05,9.3e-06,0,1 48481U 21040BF  22142.47326369  .00000930  00000-0  86376-4 0  9999,2 48481  53.0565 309.3244 0001825  57.6618 302.4546 15.03961301 58539,6932.833,95.747,555.963,553.433,554.9031553311664
2825017,48481,STARLINK-2706,2022-05-21 21:00:15.452640,15.03947668,0.0001769,53.0562,311.9991,56.7272,303.3886,0.0001814,2.256e-05,0,1 48481U 21040BF  22141.87517885  .00002256  00000-0  18140-3 0  9993,2 48481  53.0562 311.9991 0001769  56.7272 303.3886 15.03947668 57162,6932.875,95.748,555.966,553.513,554.9449168902308
2823893,48481,STARLINK-2706,2022-05-21 17:48:52.813440,15.03948544,0.0001811,53.0558,312.5938,41.2901,318.8224,0.00017911,2.224e-05,0,1 48481U 21040BF  22141.74226946  .00002224  00000-0  17911-3 0  9994,2 48481  53.0558 312.5938 0001811  41.2901 318.8224 15.03948544 58422,6932.872,95.748,555.993,553.482,554.6691809084721
2821182,48481,STARLINK-2706,2022-05-21 11:26:04.944768,15.03955433,0.0001747,53.0539,313.7823,55.9521,304.1633,0.00018143,2.257e-05,0,1 48481U 21040BF  22141.47644612  .00002257  00000-0  18143-3 0  9992,2 48481  53.0539 313.7823 0001747  55.9521 304.1633 15.03955433 57106,6932.851,95.748,555.927,553.505,554.9193510291365
2818996,48481,STARLINK-2706,2022-05-21 05:03:17.914464,15.03959802,0.0001652,53.0553,314.9711,50.7017,309.4117,0.00018724,2.338e-05,0,1 48481U 21040BF  22141.21062401  .00002338  00000-0  18724-3 0  9999,2 48481  53.0553 314.9711 0001652  50.7017 309.4117 15.03959802 57063,6932.838,95.747,555.848,553.557,554.858696824023
2816245,48481,STARLINK-2706,2022-05-20 17:53:26.251008,15.03953478,0.0001559,53.0552,317.0512,48.7492,311.363,0.00014953,1.811e-05,0,1 48481U 21040BF  22140.74544272  .00001811  00000-0  14953-3 0  9992,2 48481  53.0552 317.0512 0001559  48.7492 311.3630 15.03953478 56991,6932.857,95.748,555.803,553.641,554.8859814619287
2816244,48481,STARLINK-2706,2022-05-20 17:53:26.251008,15.03953478,0.0001559,53.0552,317.0512,48.7492,311.363,0.00014953,1.811e-05,0,1 48481U 21040BF  22140.74544272  .00001811  00000-0  14953-3 0  9992,2 48481  53.0552 317.0512 0001559  48.7492 311.3630 15.03953478 58274,6932.857,95.748,555.803,553.641,554.8859814619287
2813191,48481,STARLINK-2706,2022-05-20 11:30:39.385728,15.03953079,0.0001453,53.055,318.2404,46.1381,313.9727,0.00016493,2.026e-05,0,1 48481U 21040BF  22140.47962252  .00002026  00000-0  16493-3 0  9994,2 48481  53.0550 318.2404 0001453  46.1381 313.9727 15.03953079 56952,6932.858,95.748,555.731,553.716,554.9029585631447
2808219,48481,STARLINK-2706,2022-05-19 14:46:37.496928,15.03949943,0.0001759,53.0555,322.1033,56.7167,303.3989,-3.3988e-05,-7.49e-06,0,1 48481U 21040BF  22139.61571177 -.00000749  00000-0 -33988-4 0  9991,2 48481  53.0555 322.1033 0001759  56.7167 303.3989 15.03949943 58104,6932.868,95.748,555.952,553.513,554.9418302043265
2808218,48481,STARLINK-2706,2022-05-19 14:46:37.496928,15.03949943,0.0001759,53.0555,322.1033,56.7167,303.3989,-3.3988e-05,-7.49e-06,0,1 48481U 21040BF  22139.61571177 -.00000749  00000-0 -33988-4 0  9991,2 48481  53.0555 322.1033 0001759  56.7167 303.3989 15.03949943 56821,6932.868,95.748,555.952,553.513,554.9418302043265
2806990,48481,STARLINK-2706,2022-05-19 13:10:55.692480,15.03952358,0.0001766,53.0546,322.4007,57.8627,302.2532,1.5242e-05,-6.2e-07,0,1 48481U 21040BF  22139.54925570 -.00000062  00000-0  15242-4 0  9993,2 48481  53.0546 322.4007 0001766  57.8627 302.2532 15.03952358 56811,6932.86,95.748,555.95,553.501,554.9537322470867
2803136,48481,STARLINK-2706,2022-05-18 19:38:16.863072,15.03952282,0.0001735,53.0545,325.6698,56.9441,303.1714,0.00010954,1.253e-05,0,1 48481U 21040BF  22138.81825073  .00001253  00000-0  10954-3 0  9995,2 48481  53.0545 325.6698 0001735  56.9441 303.1714 15.03952282 57988,6932.861,95.748,555.928,553.523,554.9504756159618
2800607,48481,STARLINK-2706,2022-05-18 11:39:48.220992,15.03957696,0.000176,53.054,327.1563,55.2306,304.8847,0.00027016,3.496e-05,0,1 48481U 21040BF  22138.48597478  .00003496  00000-0  27016-3 0  9991,2 48481  53.0540 327.1563 0001760  55.2306 304.8847 15.03957696 56653,6932.844,95.747,555.929,553.489,554.8891579944287
